[{"OBJECT_NAME":"ORBCOMM FM04","OBJECT_ID":"1998-007C","EPOCH":"2026-03-09T14:44:15.821664","MEAN_MOTION":14.35529153,"ECCENTRICITY":0.0038795,"INCLINATION":107.9614,"RA_OF_ASC_NODE":324.5497,"ARG_OF_PERICENTER":142.9338,"MEAN_ANOMALY":217.4493,"EPHEMERIS_TYPE":0,"CLASSIFICATION_TYPE":"U","NORAD_CAT_ID":25159,"ELEMENT_SET_NO":999,"REV_AT_EPOCH":46230,"BSTAR":0.0004125,"MEAN_MOTION_DOT":1.067e-5,"MEAN_MOTION_DDOT":0},{"OBJECT_NAME":"CZ-6A DEB","OBJECT_ID":"2022-151AGM","EPOCH":"2026-03-08T21:54:41.338944","MEAN_MOTION":14.39909454,"ECCENTRICITY":0.01011575,"INCLINATION":98.6942,"RA_OF_ASC_NODE":118.7258,"ARG_OF_PERICENTER":222.5985,"MEAN_ANOMALY":136.7325,"EPHEMERIS_TYPE":0,"CLASSIFICATION_TYPE":"U","NORAD_CAT_ID":56661,"ELEMENT_SET_NO":999,"REV_AT_EPOCH":15593,"BSTAR":0.00029221019,"MEAN_MOTION_DOT":9.27e-6,"MEAN_MOTION_DDOT":0}]
